[
    {
        "Altitude(m)": 622205.828738848,
        "Argument of Periapsis(deg)": 0.0,
        "Eccentricity": 0.0,
        "Inclination(deg)": 60.0,
        "Latitude(deg)": -52.16232846023436,
        "Longitude(deg)": 102.70039618491614,
        "Mean Anomaly(deg)": -114.54550000000008,
        "RAAN(deg)": 335.0,
        "Satellite Name": "Test1 1489",
        "Satellite Number": 1489,
        "Semi-Major Axis(m)": 6980739.136638005,
        "Time(s)": 0
    },
    {
        "Altitude(m)": 622344.7354028657,
        "Argument of Periapsis(deg)": 0.00010418945913296404,
        "Eccentricity": 0.0,
        "Inclination(deg)": 60.0,
        "Latitude(deg)": -52.51990805407507,
        "Longitude(deg)": 103.48160667974443,
        "Mean Anomaly(deg)": -113.9253938545382,
        "RAAN(deg)": 334.99957995086027,
        "Satellite Name": "Test1 1489",
        "Satellite Number": 1489,
        "Semi-Major Axis(m)": 6980739.136638005,
        "Time(s)": 10
    }
]